HULIANWANG DIGUI-140    
1 67438U 26007D   26156.22737084 -.00000094  00000+0  64796-4 0  9995
2 67438  50.0036 128.9282 0000919 320.1777  39.9028 13.29323929 19196
HULIANWANG DIGUI-141    
1 67439U 26007E   26156.26912854 -.00000079  00000+0  97284-4 0  9991
2 67439  50.0025 128.4772 0000916 321.7457  38.3350 13.29324738 19205
HULIANWANG DIGUI-142    
1 67440U 26007F   26156.26078103 -.00000090  00000+0  74177-4 0  9992
2 67440  50.0104 128.5263 0000905 322.0216  38.0592 13.29324326 19204
HULIANWANG DIGUI-143    
1 67441U 26007G   26156.25243014 -.00000099  00000+0  54065-4 0  9990
2 67441  50.0083 128.4598 0000773 318.1877  41.8936 13.29322877 19206
HULIANWANG DIGUI-144    
1 67442U 26007H   26156.24402012 -.00000100  00000+0  51271-4 0  9994
2 67442  50.0072 128.4042 0000888 325.2308  34.8506 13.29327172 19202
HULIANWANG DIGUI-145    
1 67443U 26007J   26156.23574887 -.00000093  00000+0  66012-4 0  9994
2 67443  50.0076 128.3657 0000877 320.2072  39.8735 13.29323598 19206
STARLINK-36542          
1 67445U 26008A   26156.07623354  .00019084  00000+0  70122-3 0  9998
2 67445  43.0041  71.9984 0006022 288.6928  71.3270 15.27567001 22931
STARLINK-36539          
1 67446U 26008B   26154.25954149  .00029286  00000+0  10676-2 0  9998
2 67446  43.0046  82.4440 0002522 257.9113 102.1456 15.27638102 22656
STARLINK-36440          
1 67447U 26008C   26155.76714597  .00020406  00000+0  74927-3 0  9992
2 67447  43.0042  73.1021 0001701 281.2693  78.7967 15.27568005 22891
STARLINK-36423          
1 67448U 26008D   26155.78898860  .00028008  00000+0  10204-2 0  9994
2 67448  43.0008  73.2803 0002459 249.1222 110.9367 15.27678298 22894
STARLINK-36519          
1 67449U 26008E   26156.06595335  .00022184  00000+0  81316-3 0  9990
2 67449  43.0023  71.9151 0001385 252.6134 107.4567 15.27583294 22930
STARLINK-36525          
1 67450U 26008F   26152.20429611  .00017651  00000+0  64908-3 0  9998
2 67450  43.0031  93.6715 0002139 267.3279  92.7328 15.27596641 22345
STARLINK-36511          
1 67451U 26008G   26152.94154237  .00019716  00000+0  72384-3 0  9990
2 67451  42.9990  89.7490 0001242 196.9682 163.1128 15.27591016 22457
STARLINK-36524          
1 67452U 26008H   26154.91084507  .00036751  00000+0  13385-2 0  9995
2 67452  43.0032  78.7321 0001207 285.4498  74.6220 15.27577114 22753
STARLINK-36518          
1 67453U 26008J   26156.06723456  .00020809  00000+0  76228-3 0  9990
2 67453  43.0012  71.9075 0001092 259.3095 100.7633 15.27636031 22931
STARLINK-36517          
1 67454U 26008K   26156.07366572  .00002438  00000+0  98063-4 0  9994
2 67454  43.0006  71.9820 0000519 247.9556 112.1241 15.27582108 22938
STARLINK-36516          
1 67455U 26008L   26156.04025732  .00020600  00000+0  75481-3 0  9991
2 67455  43.0002  71.7210 0001668 268.1845  91.8815 15.27632378 22933
STARLINK-36493          
1 67456U 26008M   26156.04411192  .00039079  00000+0  14219-2 0  9992
2 67456  42.9998  71.7492 0001446 274.0264  86.0423 15.27585589 22935
STARLINK-36529          
1 67457U 26008N   26156.06980960  .00021211  00000+0  77677-3 0  9996
2 67457  43.0009  71.9439 0001318 260.8842  99.1861 15.27635292 22935
STARLINK-36528          
1 67458U 26008P   26155.89534712  .00025151  00000+0  91770-3 0  9994
2 67458  43.0043  72.3397 0002000 256.1805 103.8824 15.27675594 22917
STARLINK-36546          
1 67459U 26008Q   26154.12236218  .00025119  00000+0  91926-3 0  9997
2 67459  43.0042  83.1269 0002233 329.2066  30.8654 15.27578032 22632
STARLINK-36523          
1 67460U 26008R   26156.07751956  .00021639  00000+0  79289-3 0  9997
2 67460  43.0035  71.9984 0004067 288.1738  71.8670 15.27602148 22933
STARLINK-36522          
1 67461U 26008S   26156.05567617  .00022102  00000+0  81015-3 0  9991
2 67461  43.0011  71.8361 0001698 276.3093  83.7565 15.27585594 22936
STARLINK-36504          
1 67462U 26008T   26156.24796481  .00015661  00000+0  57613-3 0  9995
2 67462  43.0119  70.6802 0004348 256.5187 103.5180 15.27649639 22960
STARLINK-36505          
1 67463U 26008U   26156.04795077  .00021930  00000+0  80319-3 0  9999
2 67463  43.0001  71.7675 0001220 264.9778  95.0934 15.27616670 22934
STARLINK-36421          
1 67464U 26008V   26155.70304305  .00035528  00000+0  12899-2 0  9997
2 67464  43.0033  73.4874 0002236 243.7973 116.2649 15.27691930 22885
STARLINK-36437          
1 67465U 26008W   26155.84153131  .00029955  00000+0  10909-2 0  9999
2 67465  43.0027  72.7939 0002026 324.8031  35.2687 15.27662768 22908
STARLINK-36520          
1 67466U 26008X   26152.94282213  .00019030  00000+0  69896-3 0  9995
2 67466  42.9997  89.7470 0001127 193.3427 166.7395 15.27594524 22450
STARLINK-36425          
1 67467U 26008Y   26156.07495616  .00020313  00000+0  74468-3 0  9994
2 67467  43.0018  71.9901 0001270 322.1212  37.9551 15.27623572 22934
STARLINK-36414          
1 67468U 26008Z   26152.96066719  .00025526  00000+0  93336-3 0  9993
2 67468  43.0022  89.0127 0001914 301.3163  58.7501 15.27598658 22469
