OBJECT_NAME,OBJECT_ID,EPOCH,MEAN_MOTION,ECCENTRICITY,INCLINATION,RA_OF_ASC_NODE,ARG_OF_PERICENTER,MEAN_ANOMALY,EPHEMERIS_TYPE,CLASSIFICATION_TYPE,NORAD_CAT_ID,ELEMENT_SET_NO,REV_AT_EPOCH,BSTAR,MEAN_MOTION_DOT,MEAN_MOTION_DDOT
HULIANWANG DIGUI-140,2026-007D,2026-06-05T05:27:24.840576,13.29323929,.00009196,50.0036,128.9282,320.1777,39.9028,0,U,67438,999,1919,.64795952E-4,-.94E-6,0
HULIANWANG DIGUI-141,2026-007E,2026-06-05T06:27:32.705856,13.29324738,.0000916,50.0025,128.4772,321.7457,38.3350,0,U,67439,999,1920,.97284089E-4,-.79E-6,0
HULIANWANG DIGUI-142,2026-007F,2026-06-05T06:15:31.480992,13.29324326,.00009058,50.0104,128.5263,322.0216,38.0592,0,U,67440,999,1920,.74176746E-4,-.9E-6,0
HULIANWANG DIGUI-143,2026-007G,2026-06-05T06:03:29.964096,13.29322877,.00007733,50.0083,128.4598,318.1877,41.8936,0,U,67441,999,1920,.54065235E-4,-.99E-6,0
HULIANWANG DIGUI-144,2026-007H,2026-06-05T05:51:23.338368,13.29327172,.00008884,50.0072,128.4042,325.2308,34.8506,0,U,67442,999,1920,.51271382E-4,-.1E-5,0
HULIANWANG DIGUI-145,2026-007J,2026-06-05T05:39:28.702368,13.29323598,.00008774,50.0076,128.3657,320.2072,39.8735,0,U,67443,999,1920,.66012467E-4,-.93E-6,0
STARLINK-36542,2026-008A,2026-06-05T01:49:46.577856,15.27567001,.0006022,43.0041,71.9984,288.6928,71.3270,0,U,67445,999,2293,.7012193E-3,.19084E-3,0
STARLINK-36539,2026-008B,2026-06-03T06:13:44.384736,15.27638102,.0002522,43.0046,82.4440,257.9113,102.1456,0,U,67446,999,2265,.10676E-2,.29286E-3,0
STARLINK-36440,2026-008C,2026-06-04T18:24:41.411808,15.27568005,.0001701,43.0042,73.1021,281.2693,78.7967,0,U,67447,999,2289,.74927E-3,.20406E-3,0
STARLINK-36423,2026-008D,2026-06-04T18:56:08.615040,15.27678298,.0002459,43.0008,73.2803,249.1222,110.9367,0,U,67448,999,2289,.10204E-2,.28008E-3,0
STARLINK-36519,2026-008E,2026-06-05T01:34:58.369440,15.27583294,.00013855,43.0023,71.9151,252.6134,107.4567,0,U,67449,999,2293,.81316189E-3,.22184E-3,0
STARLINK-36525,2026-008F,2026-06-01T04:54:11.183904,15.27596641,.00021391,43.0031,93.6715,267.3279,92.7328,0,U,67450,999,2234,.64908038E-3,.17651E-3,0
STARLINK-36511,2026-008G,2026-06-01T22:35:49.260768,15.27591016,.00012428,42.9990,89.7490,196.9682,163.1128,0,U,67451,999,2245,.72383771E-3,.19716E-3,0
STARLINK-36524,2026-008H,2026-06-03T21:51:37.014048,15.27577114,.0001207,43.0032,78.7321,285.4498,74.6220,0,U,67452,999,2275,.13385E-2,.36751E-3,0
STARLINK-36518,2026-008J,2026-06-05T01:36:49.065984,15.27636031,.00010928,43.0012,71.9075,259.3095,100.7633,0,U,67453,999,2293,.76228334E-3,.20809E-3,0
STARLINK-36517,2026-008K,2026-06-05T01:46:04.718208,15.27582108,.00005192,43.0006,71.9820,247.9556,112.1241,0,U,67454,999,2293,.98063328E-4,.2438E-4,0
STARLINK-36516,2026-008L,2026-06-05T00:57:58.232448,15.27632378,.00016689,43.0002,71.7210,268.1845,91.8815,0,U,67455,999,2293,.75481077E-3,.206E-3,0
STARLINK-36493,2026-008M,2026-06-05T01:03:31.269888,15.27585589,.00014468,42.9998,71.7492,274.0264,86.0423,0,U,67456,999,2293,.14218652E-2,.39079E-3,0
STARLINK-36529,2026-008N,2026-06-05T01:40:31.549440,15.27635292,.00013186,43.0009,71.9439,260.8842,99.1861,0,U,67457,999,2293,.77677422E-3,.21211E-3,0
STARLINK-36528,2026-008P,2026-06-04T21:29:17.991168,15.27675594,.0002,43.0043,72.3397,256.1805,103.8824,0,U,67458,999,2291,.9177E-3,.25151E-3,0
STARLINK-36546,2026-008Q,2026-06-03T02:56:12.092352,15.27578032,.00022333,43.0042,83.1269,329.2066,30.8654,0,U,67459,999,2263,.91925686E-3,.25119E-3,0
STARLINK-36523,2026-008R,2026-06-05T01:51:37.689984,15.27602148,.00040673,43.0035,71.9984,288.1738,71.8670,0,U,67460,999,2293,.79289057E-3,.21639E-3,0
STARLINK-36522,2026-008S,2026-06-05T01:20:10.421088,15.27585594,.00016982,43.0011,71.8361,276.3093,83.7565,0,U,67461,999,2293,.81014532E-3,.22102E-3,0
STARLINK-36504,2026-008T,2026-06-05T05:57:04.159584,15.27649639,.00043488,43.0119,70.6802,256.5187,103.5180,0,U,67462,999,2296,.5761273E-3,.15661E-3,0
STARLINK-36505,2026-008U,2026-06-05T01:09:02.946528,15.27616670,.00012208,43.0001,71.7675,264.9778,95.0934,0,U,67463,999,2293,.80319079E-3,.2193E-3,0
STARLINK-36421,2026-008V,2026-06-04T16:52:22.919520,15.27691930,.00022369,43.0033,73.4874,243.7973,116.2649,0,U,67464,999,2288,.12899324E-2,.35528E-3,0
STARLINK-36437,2026-008W,2026-06-04T20:11:48.305184,15.27662768,.0002026,43.0027,72.7939,324.8031,35.2687,0,U,67465,999,2290,.10908912E-2,.29955E-3,0
STARLINK-36520,2026-008X,2026-06-01T22:37:39.832032,15.27594524,.00011271,42.9997,89.7470,193.3427,166.7395,0,U,67466,999,2245,.69895539E-3,.1903E-3,0
STARLINK-36425,2026-008Y,2026-06-05T01:47:56.212224,15.27623572,.00012709,43.0018,71.9901,322.1212,37.9551,0,U,67467,999,2293,.74467981E-3,.20313E-3,0
STARLINK-36414,2026-008Z,2026-06-01T23:03:21.645216,15.27598658,.0001914,43.0022,89.0127,301.3163,58.7501,0,U,67468,999,2246,.9333577E-3,.25526E-3,0
